STARLINK-1506           
1 45747U 20038T   26068.66028804  .00025380  00000+0  97997-3 0  9997
2 45747  53.0733 202.5028 0002514 227.7836 132.2949 15.26134655316688
STARLINK-31161          
1 58795U 24012J   26068.33254313 -.00000120  00000+0  51591-5 0  9998
2 58795  43.0016 167.0695 0000821 246.6906 113.3859 15.27571922121182
